NORAD_CAT_ID,OBJECT_NAME,OBJECT_TYPE,EPOCH,MEAN_MOTION,ECCENTRICITY,INCLINATION,RA_OF_ASC_NODE,ARG_OF_PERICENTER,MEAN_ANOMALY,BSTAR,MEAN_MOTION_DOT,MEAN_MOTION_DDOT,TLE_LINE0,TLE_LINE1,TLE_LINE2,SEMIMAJOR_AXIS,PERIOD,APOGEE,PERIGEE,DECAYED
52600.0,STARLINK-4026,PAYLOAD,2024-07-15 22:25:55,15.08835474,0.0001654,53.2181,100.499,104.2397,255.8779,-7.1569e-05,-1.427e-05,0.0,0 STARLINK-4026,1 52600U 22052C   24197.93467479 -.00001427  00000-0 -71569-4 0  9994,2 52600  53.2181 100.4990 0001654 104.2397 255.8779 15.08835474120810,6917.894,95.438,540.903,538.615,0.0
52600.0,STARLINK-4026,PAYLOAD,2024-07-16 03:12:05,15.08841644,0.0001599,53.2154,99.6084,101.0083,259.1089,8.6791e-05,1.094e-05,0.0,0 STARLINK-4026,1 52600U 22052C   24198.13339304  .00001094  00000-0  86791-4 0  9993,2 52600  53.2154  99.6084 0001599 101.0083 259.1089 15.08841644120411,6917.875,95.437,540.847,538.634,0.0
52600.0,STARLINK-4026,PAYLOAD,2024-07-16 22:16:42,15.08848967,0.0001522,53.2155,96.0415,103.7391,256.3771,0.0006045,9.348e-05,0.0,0 STARLINK-4026,1 52600U 22052C   24198.92827331  .00009348  00000-0  60450-3 0  9995,2 52600  53.2155  96.0415 0001522 103.7391 256.3771 15.08848967120960,6917.853,95.437,540.771,538.665,0.0
52600.0,STARLINK-4026,PAYLOAD,2024-07-17 03:02:52,15.08853609,0.0001659,53.2169,95.1491,116.1078,244.0085,0.00078393,0.00012215,0.0,0 STARLINK-4026,1 52600U 22052C   24199.12699089  .00012215  00000-0  78393-3 0  9997,2 52600  53.2169  95.1491 0001659 116.1078 244.0085 15.08853609120567,6917.839,95.437,540.851,538.556,0.0
52600.0,STARLINK-4026,PAYLOAD,2024-07-17 20:32:06,15.08845741,0.0002181,53.2151,91.8718,131.9999,228.1179,0.00024423,3.601e-05,0.0,0 STARLINK-4026,1 52600U 22052C   24199.85563252  .00003601  00000-0  24423-3 0  9993,2 52600  53.2151  91.8718 0002181 131.9999 228.1179 15.08845741120678,6917.863,95.437,541.237,538.219,0.0
52600.0,STARLINK-4026,PAYLOAD,2024-07-17 22:07:29,15.08839511,0.0001584,53.2151,91.5743,120.7889,239.3259,6.7061e-05,7.79e-06,0.0,0 STARLINK-4026,1 52600U 22052C   24199.92187441  .00000779  00000-0  67061-4 0  9992,2 52600  53.2151  91.5743 0001584 120.7889 239.3259 15.08839511121114,6917.882,95.438,540.843,538.651,0.0
52600.0,STARLINK-4026,PAYLOAD,2024-07-18 09:15:11,15.08844985,0.0001256,53.2156,89.5023,123.8571,236.2541,0.00024603,3.63e-05,0.0,0 STARLINK-4026,1 52600U 22052C   24200.38555382  .00003630  00000-0  24603-3 0  9991,2 52600  53.2156  89.5023 0001256 123.8571 236.2541 15.08844985121183,6917.865,95.437,540.599,538.861,0.0
52600.0,STARLINK-4026,PAYLOAD,2024-07-18 20:22:54,15.08831228,0.0001691,53.2168,87.4268,126.8042,233.3106,2.6305e-06,-2.46e-06,0.0,0 STARLINK-4026,1 52600U 22052C   24200.84924317 -.00000246  00000-0  26305-5 0  9994,2 52600  53.2168  87.4268 0001691 126.8042 233.3106 15.08831228120824,6917.907,95.438,540.942,538.602,0.0
52600.0,STARLINK-4026,PAYLOAD,2024-07-19 09:05:59,15.08850428,9.42e-05,53.2151,85.0372,84.4199,275.69,0.00056295,8.685e-05,0.0,0 STARLINK-4026,1 52600U 22052C   24201.37915828  .00008685  00000-0  56295-3 0  9993,2 52600  53.2151  85.0372 0000942  84.4199 275.6900 15.08850428120909,6917.849,95.437,540.365,539.062,0.0
52600.0,STARLINK-4026,PAYLOAD,2024-07-19 20:13:41,15.08829425,0.00011,53.2158,82.9624,107.5637,252.5476,1.1899e-05,-9.8e-07,0.0,0 STARLINK-4026,1 52600U 22052C   24201.84284663 -.00000098  00000-0  11899-4 0  9994,2 52600  53.2158  82.9624 0001100 107.5637 252.5476 15.08829425120975,6917.913,95.438,540.539,539.017,0.0
52600.0,STARLINK-4026,PAYLOAD,2024-07-19 21:49:05,15.08831218,0.0001135,53.216,82.6651,107.7413,252.3703,5.868e-05,6.46e-06,0.0,0 STARLINK-4026,1 52600U 22052C   24201.90908656  .00000646  00000-0  58680-4 0  9993,2 52600  53.2160  82.6651 0001135 107.7413 252.3703 15.08831218121411,6917.907,95.438,540.557,538.987,0.0
52600.0,STARLINK-4026,PAYLOAD,2024-07-20 08:56:46,15.08860765,0.0001185,53.2172,80.5828,85.7688,274.3439,0.0007335,0.00011412,0.0,0 STARLINK-4026,1 52600U 22052C   24202.37275888  .00011412  00000-0  73350-3 0  9992,2 52600  53.2172  80.5828 0001185  85.7688 274.3439 15.08860765121050,6917.817,95.436,540.502,538.862,0.0
52600.0,STARLINK-4026,PAYLOAD,2024-07-20 21:39:51,15.08838799,0.0001042,53.2151,78.203,77.0242,283.0866,0.00016657,2.364e-05,0.0,0 STARLINK-4026,1 52600U 22052C   24202.90268513  .00002364  00000-0  16657-3 0  9991,2 52600  53.2151  78.2030 0001042  77.0242 283.0866 15.08838799121130,6917.884,95.438,540.47,539.028,0.0
52600.0,STARLINK-4026,PAYLOAD,2024-07-21 00:50:38,15.08849728,0.0001149,53.2159,77.6109,88.5599,271.5525,0.00094508,0.00014789,0.0,0 STARLINK-4026,1 52600U 22052C   24203.03516424  .00014789  00000-0  94508-3 0  9998,2 52600  53.2159  77.6109 0001149  88.5599 271.5525 15.08849728121158,6917.851,95.437,540.511,538.921,0.0
52600.0,STARLINK-4026,PAYLOAD,2024-07-21 19:55:15,15.08851558,0.000115,53.2155,74.0408,89.2249,270.8875,0.00077205,0.00012024,0.0,0 STARLINK-4026,1 52600U 22052C   24203.83004338  .00012024  00000-0  77205-3 0  9997,2 52600  53.2155  74.0408 0001150  89.2249 270.8875 15.08851558121276,6917.845,95.437,540.506,538.915,0.0
52600.0,STARLINK-4026,PAYLOAD,2024-07-21 21:30:38,15.08855248,0.0001433,53.2149,73.7388,68.273,291.8414,0.0011304,0.00017756,0.0,0 STARLINK-4026,1 52600U 22052C   24203.89628325  .00017756  00000-0  11304-2 0  9995,2 52600  53.2149  73.7388 0001433  68.2730 291.8414 15.08855248121719,6917.834,95.437,540.69,538.707,0.0
52600.0,STARLINK-4026,PAYLOAD,2024-07-22 00:41:24,15.08876279,0.0001275,53.215,73.1461,101.0896,259.024,0.0013914,0.00021947,0.0,0 STARLINK-4026,1 52600U 22052C   24204.02875760  .00021947  00000-0  13914-2 0  9994,2 52600  53.2150  73.1461 0001275 101.0896 259.0240 15.08876279121305,6917.77,95.435,540.517,538.752,0.0
52600.0,STARLINK-4026,PAYLOAD,2024-07-22 14:59:52,15.08860422,9.02e-05,53.216,70.4677,133.1052,227.0015,0.0017868,0.00028279,0.0,0 STARLINK-4026,1 52600U 22052C   24204.62491412  .00028279  00000-0  17868-2 0  9995,2 52600  53.2160  70.4677 0000902 133.1052 227.0015 15.08860422121826,6917.818,95.436,540.307,539.059,0.0
52600.0,STARLINK-4026,PAYLOAD,2024-07-23 08:29:06,15.08869159,2.96e-05,53.2157,67.1938,170.629,189.4707,0.0010871,0.0001707,0.0,0 STARLINK-4026,1 52600U 22052C   24205.35354542  .00017070  00000-0  10871-2 0  9992,2 52600  53.2157  67.1938 0000296 170.6290 189.4707 15.08869159121501,6917.791,95.436,539.861,539.451,0.0
52600.0,STARLINK-4026,PAYLOAD,2024-07-24 14:41:26,15.08855897,0.0002677,53.2141,61.5473,85.6844,274.4454,0.00049484,7.599e-05,0.0,0 STARLINK-4026,1 52600U 22052C   24206.61211013  .00007599  00000-0  49484-3 0  9995,2 52600  53.2141  61.5473 0002677  85.6844 274.4454 15.08855897122128,6917.832,95.437,541.549,537.845,0.0
52600.0,STARLINK-4026,PAYLOAD,2024-07-25 14:32:15,15.08816989,0.000453,53.2155,57.0851,312.6217,47.4392,0.0005131,7.883e-05,0.0,0 STARLINK-4026,1 52600U 22052C   24207.60573007  .00007883  00000-0  51310-3 0  9996,2 52600  53.2155  57.0851 0004530 312.6217  47.4392 15.08816989121846,6917.951,95.439,542.95,536.682,0.0
52600.0,STARLINK-4026,PAYLOAD,2024-07-25 20:53:47,15.0882617,4.96e-05,53.2154,55.8958,22.0563,338.0451,0.00067168,0.00010414,0.0,0 STARLINK-4026,1 52600U 22052C   24207.87068988  .00010414  00000-0  67168-3 0  9994,2 52600  53.2154  55.8958 0000496  22.0563 338.0451 15.08826170121884,6917.923,95.438,540.131,539.445,0.0
52600.0,STARLINK-4026,PAYLOAD,2024-07-26 14:23:02,15.08845098,0.0001187,53.2162,52.6221,322.628,37.4629,0.00069253,0.00010752,0.0,0 STARLINK-4026,1 52600U 22052C   24208.59932973  .00010752  00000-0  69253-3 0  9990,2 52600  53.2162  52.6221 0001187 322.6280  37.4629 15.08845098122422,6917.865,95.437,540.551,538.909,0.0
52600.0,STARLINK-4026,PAYLOAD,2024-07-26 20:44:34,15.08852681,7.04e-05,53.2178,51.4377,74.544,285.563,0.00069366,0.00010773,0.0,0 STARLINK-4026,1 52600U 22052C   24208.86428760  .00010773  00000-0  69366-3 0  9992,2 52600  53.2178  51.4377 0000704  74.5440 285.5630 15.08852681122461,6917.842,95.437,540.194,539.22,0.0
52600.0,STARLINK-4026,PAYLOAD,2024-07-26 22:19:57,15.08855069,0.0001207,53.2148,51.1397,89.812,270.301,0.00073264,0.00011396,0.0,0 STARLINK-4026,1 52600U 22052C   24208.93052659  .00011396  00000-0  73264-3 0  9994,2 52600  53.2148  51.1397 0001207  89.8120 270.3010 15.08855069122041,6917.834,95.437,540.534,538.864,0.0
52600.0,STARLINK-4026,PAYLOAD,2024-07-27 22:10:45,15.08838562,0.0001588,53.2179,46.6769,62.9137,297.2017,0.00033003,4.968e-05,0.0,0 STARLINK-4026,1 52600U 22052C   24209.92413436  .00004968  00000-0  33003-3 0  9992,2 52600  53.2179  46.6769 0001588  62.9137 297.2017 15.08838562122627,6917.885,95.438,540.848,538.651,0.0
52600.0,STARLINK-4026,PAYLOAD,2024-07-28 12:29:13,15.08832366,0.0001454,53.2155,44.0029,85.693,274.4228,0.0001209,1.636e-05,0.0,0 STARLINK-4026,1 52600U 22052C   24210.52029793  .00001636  00000-0  12090-3 0  9991,2 52600  53.2155  44.0029 0001454  85.6930 274.4228 15.08832366122286,6917.904,95.438,540.775,538.763,0.0
52600.0,STARLINK-4026,PAYLOAD,2024-07-28 20:26:09,15.08844515,0.0001446,53.217,42.5174,85.0908,275.025,6.5862e-05,7.61e-06,0.0,0 STARLINK-4026,1 52600U 22052C   24210.85149543  .00000761  00000-0  65862-4 0  9997,2 52600  53.2170  42.5174 0001446  85.0908 275.0250 15.08844515122761,6917.867,95.437,540.732,538.731,0.0
52600.0,STARLINK-4026,PAYLOAD,2024-07-28 23:36:55,15.08849942,0.0001464,53.2171,41.9225,83.8412,276.2747,0.00010781,1.429e-05,0.0,0 STARLINK-4026,1 52600U 22052C   24210.98397053  .00001429  00000-0  10781-3 0  9993,2 52600  53.2171  41.9225 0001464  83.8412 276.2747 15.08849942122356,6917.85,95.437,540.728,538.702,0.0
52600.0,STARLINK-4026,PAYLOAD,2024-07-29 20:16:56,15.08841321,0.0001476,53.2176,38.0563,83.8088,276.3072,0.00016566,2.35e-05,0.0,0 STARLINK-4026,1 52600U 22052C   24211.84509695  .00002350  00000-0  16566-3 0  9997,2 52600  53.2176  38.0563 0001476  83.8088 276.3072 15.08841321122484,6917.876,95.437,540.762,538.72,0.0
